COSMOS 2433 (720)       
1 32275U 07052A   22135.43085706 -.00000043  00000+0  00000+0 0  9995
2 32275  66.0823   5.7662 0001108 290.5662 196.3655  2.13104150113267
COSMOS 2432 (719)       
1 32276U 07052B   22135.54009422 -.00000043  00000+0  00000+0 0  9999
2 32276  66.0951   5.8634 0010346 340.9438 178.2115  2.13103602113266
COSMOS 2434 (721)       
1 32393U 07065A   22135.42223602  .00000017  00000+0  00000+0 0  9998
2 32393  64.3903 242.5535 0003238  87.5293 282.2352  2.13103205111973
COSMOS 2436 (723)       
1 32395U 07065C   22135.73959593  .00000019  00000+0  00000+0 0  9991
2 32395  64.3985 242.5988 0015107   1.4747  27.6618  2.13103194111911
COSMOS 2456 (730)       
1 36111U 09070A   22135.30097818  .00000077  00000+0  00000+0 0  9999
2 36111  64.3452 122.1925 0006335 303.5984 139.1684  2.13099292 96632
COSMOS 2457 (733)       
1 36112U 09070B   22135.17086935  .00000078  00000+0  00000+0 0  9994
2 36112  64.3284 122.0737 0004236 200.9151 269.0659  2.13101460 96636
COSMOS 2461 (735)       
1 36401U 10007B   22135.21649721 -.00000042  00000+0  00000+0 0  9992
2 36401  65.9687   4.6160 0021880  10.0743 169.8723  2.13103861 94989
COSMOS 2460 (732)       
1 36402U 10007C   22135.17489987 -.00000042  00000+0  00000+0 0  9994
2 36402  65.9562   4.5678 0002403  43.8356  52.3021  2.13106531 94983
COSMOS 2464 (736)       
1 37139U 10041C   22135.15673403  .00000015  00000+0  00000+0 0  9995
2 37139  63.9903 241.6533 0028823  11.7411  12.8135  2.13100820 91048
COSMOS 2476 (744)       
1 37867U 11064A   22135.32920478  .00000079  00000+0  00000+0 0  9995
2 37867  64.6345 123.5353 0023113 241.8924 127.7660  2.13102013 81981
COSMOS 2477 (745)       
1 37868U 11064B   22135.16253448  .00000081  00000+0  00000+0 0  9997
2 37868  64.6421 123.6051 0020486 243.1884 176.7323  2.13101818 81930
COSMOS 2475 (743)       
1 37869U 11064C   22135.76729382  .00000075  00000+0  00000+0 0  9992
2 37869  64.6503 123.5923 0025301 258.8898 222.9529  2.13102015 81952
COSMOS 2485 (747)       
1 39155U 13019A   22135.25658756  .00000081  00000+0  00000+0 0  9991
2 39155  64.7985 123.9586 0023527 237.6790 120.6560  2.13101950 70448
COSMOS 2492 (754)       
1 39620U 14012A   22135.37436522 -.00000042  00000+0  00000+0 0  9998
2 39620  65.8416   4.2475 0013213 333.3519 149.8596  2.13103395 63403
COSMOS 2500 (755)       
1 40001U 14032A   22135.17593029 -.00000042  00000+0  00000+0 0  9999
2 40001  65.7827   4.1181 0004309 193.1399 356.5934  2.13102517 61619
COSMOS 2501 (702K)      
1 40315U 14075A   22134.79489813  .00000012  00000+0  00000+0 0  9992
2 40315  63.6987 242.3476 0017675 207.2940 217.9416  2.13101539 58011
COSMOS 2514 (751)       
1 41330U 16008A   22135.62762878 -.00000043  00000+0  00000+0 0  9991
2 41330  65.5819   3.8020 0007881 205.3646 154.6599  2.13102689 48799
COSMOS 2516 (753)       
1 41554U 16032A   22134.94727072  .00000013  00000+0  00000+0 0  9993
2 41554  63.9236 242.6091 0013947 213.9264 246.1869  2.13106269 46382
COSMOS 2522 (752)       
1 42939U 17055A   22135.42595661  .00000016  00000+0  00000+0 0  9991
2 42939  64.1561 242.9783 0006882 239.8694  84.8540  2.13101992 36143
COSMOS 2527 (756)       
1 43508U 18053A   22135.20535470  .00000081  00000+0  00000+0 0  9993
2 43508  64.9611 123.9532 0009794 243.5839 304.0111  2.13102574 30432
COSMOS 2529 (757)       
1 43687U 18086A   22135.44344964  .00000016  00000+0  00000+0 0  9997
2 43687  64.3711 243.2845 0008808 265.3177  28.3458  2.13102202 27456
COSMOS 2534 (758)       
1 44299U 19030A   22135.16873463  .00000014  00000+0  00000+0 0  9995
2 44299  64.4444 243.1750 0011438 288.5598 288.9433  2.13102081 23099
COSMOS 2544 (759)       
1 44850U 19088A   22135.37983396  .00000079  00000+0  00000+0 0  9992
2 44850  64.9477 123.8005 0014728 264.2182 100.7288  2.13102420 18871
COSMOS 2545 (760)       
1 45358U 20018A   22135.27647990 -.00000045  00000+0  00000+0 0  9991
2 45358  64.9191   4.4495 0007071 257.0648 238.1073  2.13102718 16826
COSMOS 2547 (705K)      
1 46805U 20075A   22135.29772947  .00000016  00000+0  00000+0 0  9992
2 46805  64.6681 242.5859 0006490 243.4976 120.5391  2.13103255 12078
